     3.03           N: GNSS NAV DATA    M: Mixed            RINEX VERSION / TYPE
Emlid RGL 1.2.7                         20241129 084001 UTC PGM / RUN BY / DATE 
format: u-blox                                              COMMENT             
GPSA   0.0000E+00  0.0000E+00  0.0000E+00  0.0000E+00       IONOSPHERIC CORR    
GPSB   0.0000E+00  0.0000E+00  0.0000E+00  0.0000E+00       IONOSPHERIC CORR    
GAL    0.0000E+00  0.0000E+00  0.0000E+00  0.0000E+00       IONOSPHERIC CORR    
QZSA   2.2352E-08 -3.7253E-08 -2.3842E-07 -5.9605E-08       IONOSPHERIC CORR    
QZSB   1.3107E+05 -2.4576E+05  6.5536E+04 -1.9005E+06       IONOSPHERIC CORR    
GPUT  0.0000000000E+00 0.000000000E+00      0 2304          TIME SYSTEM CORR    
GAUT  0.0000000000E+00 0.000000000E+00      0    0          TIME SYSTEM CORR    
QZUT  1.1175870895E-08 0.000000000E+00  94208 2343          TIME SYSTEM CORR    
BDUT  0.0000000000E+00 0.000000000E+00      0    0          TIME SYSTEM CORR    
     0                                                      LEAP SECONDS        
                                                            END OF HEADER       
G27 2024 11 29 10  0  0 -.345306470990E-04  .227373675443E-12  .000000000000E+00
      .630000000000E+02  .955312500000E+02  .457090468224E-08  .777208032623E+00
      .497326254845E-05  .129151692381E-01  .304915010929E-05  .515368983841E+04
      .468000000000E+06 -.122934579849E-06 -.229478184900E+01  .137835741043E-06
      .959485407516E+00  .319750000000E+03  .800737257372E+00 -.848106755622E-08
      .141434462742E-09  .100000000000E+01  .234200000000E+04  .000000000000E+00
      .200000000000E+01  .000000000000E+00  .186264514923E-08  .630000000000E+02
      .463176000000E+06  .400000000000E+01
G 8 2024 11 29 10  0  0  .426048878580E-03  .966338120634E-11  .000000000000E+00
      .410000000000E+02  .971250000000E+02  .475626954629E-08  .709667707434E+00
      .514276325703E-05  .100520983106E-01  .245124101639E-05  .515371929550E+04
      .468000000000E+06  .186264514923E-07 -.232285949818E+01  .217929482460E-06
      .950459676952E+00  .325250000000E+03  .382353699549E+00 -.846713840459E-08
      .189293599124E-09  .100000000000E+01  .234200000000E+04  .000000000000E+00
      .200000000000E+01  .000000000000E+00  .465661287308E-08  .410000000000E+02
      .463176000000E+06  .400000000000E+01
G16 2024 11 29  9 59 44 -.116114970297E-03  .966338120634E-11  .000000000000E+00
      .160000000000E+02  .823437500000E+02  .412052877942E-08  .169796069003E+01
      .421144068241E-05  .142994399648E-01  .107511878014E-04  .515366708946E+04
      .467984000000E+06 -.283122062683E-06  .303769843816E+01 -.745058059692E-07
      .961078446306E+00  .177000000000E+03  .855991816592E+00 -.785782731005E-08
     -.208937274505E-09  .100000000000E+01  .234200000000E+04  .000000000000E+00
      .200000000000E+01  .000000000000E+00 -.102445483208E-07  .160000000000E+02
      .463176000000E+06  .400000000000E+01
G 4 2024 11 29 10  0  0  .487543176860E-03  .636646291241E-11  .000000000000E+00
      .680000000000E+02  .167500000000E+02  .475984112363E-08  .395858778478E+00
      .767409801483E-06  .318060640711E-02  .603310763836E-05  .515367852211E+04
      .468000000000E+06 -.167638063431E-07  .891996606302E+00 -.372529029846E-08
      .966125273761E+00  .262343750000E+03 -.299677778435E+01 -.808105089392E-08
      .266439669710E-09  .100000000000E+01  .234200000000E+04  .000000000000E+00
      .200000000000E+01  .000000000000E+00 -.465661287308E-08  .324000000000E+03
      .463176000000E+06  .400000000000E+01
G26 2024 11 29 10  0  0  .946689397097E-05 -.135287336889E-10  .000000000000E+00
      .570000000000E+02  .636875000000E+02  .477448459073E-08  .254034019726E+01
      .322796404362E-05  .964186270721E-02  .109151005745E-04  .515374573517E+04
      .468000000000E+06 -.875443220139E-07  .286555561991E+01 -.130385160446E-06
      .930441072308E+00  .153656250000E+03  .585381278566E+00 -.798568977889E-08
     -.284297556420E-09  .100000000000E+01  .234200000000E+04  .000000000000E+00
      .200000000000E+01  .000000000000E+00  .651925802231E-08  .570000000000E+02
      .463176000000E+06  .400000000000E+01
G 9 2024 11 29 10  0  0  .465118326247E-03  .168256519828E-10  .000000000000E+00
      .560000000000E+02  .178750000000E+02  .483663003648E-08  .124837132676E+01
      .745058059692E-06  .318298500497E-02  .654347240925E-05  .515354797173E+04
      .468000000000E+06  .000000000000E+00  .831047230304E+00 -.484287738800E-07
      .959935266528E+00  .250375000000E+03  .202352882076E+01 -.805640701026E-08
      .350728894981E-09  .100000000000E+01  .234200000000E+04  .000000000000E+00
      .200000000000E+01  .000000000000E+00  .465661287308E-09  .560000000000E+02
      .463176000000E+06  .400000000000E+01
G31 2024 11 29 10  0  0 -.220916699618E-03  .682121026330E-12  .000000000000E+00
      .940000000000E+02 -.259687500000E+02  .486091676241E-08 -.313406556264E+01
     -.142678618431E-05  .107278091600E-01  .693835318089E-05  .515359309387E+04
      .468000000000E+06 -.279396772385E-07  .192640519940E+01 -.165775418282E-06
      .953864471027E+00  .240625000000E+03  .777783238845E+00 -.798247535928E-08
     -.578238371663E-09  .100000000000E+01  .234200000000E+04  .000000000000E+00
      .200000000000E+01  .000000000000E+00 -.130385160446E-07  .940000000000E+02
      .463176000000E+06  .400000000000E+01
G 7 2024 11 29 10  0  0 -.176313333213E-04  .181898940355E-11  .000000000000E+00
      .380000000000E+02 -.176875000000E+02  .482591530446E-08 -.206206621571E+01
     -.100210309029E-05  .188717220444E-01  .668875873089E-05  .515358057785E+04
      .468000000000E+06  .255182385445E-06  .190410050145E+01 -.931322574615E-07
      .949930499984E+00  .241281250000E+03 -.209166155755E+01 -.778246702813E-08
     -.428589281035E-09  .100000000000E+01  .234200000000E+04  .000000000000E+00
      .200000000000E+01  .000000000000E+00 -.107102096081E-07  .380000000000E+02
      .463176000000E+06  .400000000000E+01
G21 2024 11 29 10  0  0  .962712801993E-04 -.909494701773E-12  .000000000000E+00
      .136000000000E+03 -.871250000000E+02  .485484508093E-08  .520481435661E+00
     -.488758087158E-05  .256355655147E-01  .231526792049E-05  .515362944221E+04
      .468000000000E+06  .383704900742E-06 -.133071799359E+01 -.325962901115E-06
      .960666005812E+00  .334187500000E+03 -.486370261742E+00 -.870250535142E-08
     -.136791412197E-09  .100000000000E+01  .234200000000E+04  .000000000000E+00
      .200000000000E+01  .000000000000E+00 -.102445483208E-07  .136000000000E+03
      .463176000000E+06  .400000000000E+01
G18 2024 11 29 10  0  0 -.660595484078E-03  .000000000000E+00  .000000000000E+00
      .193000000000E+03 -.984375000000E+02  .429553606918E-08 -.132877498237E+01
     -.526756048203E-05  .480096065439E-02  .283308327198E-05  .515372240067E+04
      .468000000000E+06  .484287738800E-07 -.121845550346E+01 -.838190317154E-07
      .974065261637E+00  .329156250000E+03 -.294277158433E+01 -.813212444991E-08
     -.942896418278E-10  .100000000000E+01  .234200000000E+04  .000000000000E+00
      .200000000000E+01  .000000000000E+00 -.838190317154E-08  .193000000000E+03
      .463176000000E+06  .400000000000E+01
J 3 2024 11 29  9  0  0 -.780820846558E-05 -.909494701773E-12  .000000000000E+00
      .650000000000E+02 -.573312500000E+03  .442875590403E-10  .139260731493E+01
     -.199526548386E-04  .754037548322E-01 -.140033662319E-04  .649381476593E+04
      .464400000000E+06  .393576920033E-05 -.126826220988E+01 -.180676579475E-06
      .705421043504E+00  .639781250000E+03 -.155267546045E+01 -.209294432239E-09
     -.161792453591E-09  .200000000000E+01  .234200000000E+04  .100000000000E+01
      .280000000000E+01  .100000000000E+01  .931322574615E-09  .833000000000E+03
      .463176000000E+06  .100000000000E+01
J 2 2024 11 29  9  0  0  .237952917814E-06 -.113686837722E-12  .000000000000E+00
      .650000000000E+02  .101621875000E+04  .127648174202E-08 -.308514549137E+01
      .309422612190E-04  .756809812738E-01  .162106007338E-04  .649309835815E+04
      .464400000000E+06  .214204192162E-06 -.300213267309E+01  .135973095894E-06
      .704391326189E+00 -.382062500000E+03 -.158018033185E+01 -.161363864310E-08
     -.115004790411E-09  .200000000000E+01  .234200000000E+04  .100000000000E+01
      .280000000000E+01  .100000000000E+01  .186264514923E-08  .833000000000E+03
      .463176000000E+06  .100000000000E+01
E14 2024 11 29  8 20  0  .421668519266E-03  .362803120879E-10  .173472347598E-17
      .800000000000E+01  .181875000000E+02  .561023368875E-08 -.180365722200E+01
      .121258199215E-05  .161604135181E+00  .374391674995E-05  .528934560013E+04
      .462000000000E+06 -.495091080666E-05 -.223234137034E+01 -.946223735809E-06
      .864056936628E+00  .286437500000E+03  .276211193204E+01 -.752638493271E-08
     -.134291308058E-09  .100000000000E+01  .234200000000E+04  .000000000000E+00
      .312000000000E+01  .130000000000E+03 -.372529029846E-08 -.442378222942E-08
      .463189000000E+06  .000000000000E+00
R15 2024 11 29  8 45  0  .736350193620E-04  .000000000000E+00  .463170000000E+06
     -.181642099609E+05 -.233361339569E+01 -.279396772385E-08  .000000000000E+00
      .473149267578E+04 -.384670257568E+00 -.279396772385E-08  .000000000000E+00
      .172831621094E+05 -.234958553314E+01  .000000000000E+00  .000000000000E+00
R17 2024 11 29  8 45  0  .144091434777E-03  .363797880709E-11  .463170000000E+06
     -.166565288086E+05  .180028915405E+01 -.279396772385E-08  .000000000000E+00
      .564241064453E+04 -.178435611725E+01 -.279396772385E-08  .400000000000E+01
      .185121201172E+05  .216139793396E+01  .000000000000E+00  .000000000000E+00
